ISS (ZARYA)             
1 25544U 98067A   20116.73715466  .00000808  00000-0  22584-4 0  9990
2 25544  51.6442 248.0617 0001745 190.8339 313.6052 15.49312631223880
NSIGHT                  
1 42726U 98067MF  20115.95512451  .09774842  12509-4  37416-3 0  9998
2 42726  51.6133 129.6530 0002637 263.7641  96.3087 16.44153453167110
KESTREL EYE IIM (KE2M)  
1 42982U 98067NE  20116.59225032  .00011948  00000-0  10697-3 0  9992
2 42982  51.6341 190.9990 0003029 264.7850  95.2801 15.68824310142774
ASTERIA                 
1 43020U 98067NH  20115.24608386  .13500826  12580-4  23780-3 0  9993
2 43020  51.6421 146.4962 0005584 252.9464 107.0954 16.47464318139010
DELLINGR (RBLE)         
1 43021U 98067NJ  20116.47890588  .00011391  00000-0  99613-4 0  9996
2 43021  51.6354 190.3096 0000736 249.9375 110.1543 15.69459895138546
1KUNS-PF                
1 43466U 98067NP  20116.39776772  .00127524  17274-4  37496-3 0  9999
2 43466  51.6261 172.1441 0006679   3.3895 356.7156 15.92439894112036
UBAKUSAT                
1 43467U 98067NQ  20116.47249490  .00023957  00000-0  17609-3 0  9995
2 43467  51.6324 193.9153 0000709 339.7086  20.3884 15.72964259111761
CUBERRT                 
1 43546U 98067NU  20116.45093279  .00010652  00000-0  85708-4 0  9997
2 43546  51.6348 193.0435 0002804 257.6298 102.4386 15.71575366101900
TEMPEST-D               
1 43547U 98067NV  20116.57341440  .00004608  00000-0  57887-4 0  9998
2 43547  51.6369 218.7195 0004517 216.3967 143.6720 15.61909648101250
RAINCUBE                
1 43548U 98067NW  20116.47177597  .00024318  00000-0  18789-3 0  9995
2 43548  51.6334 201.4068 0003613 269.0964  90.9620 15.71766079101926
HALOSAT                 
1 43549U 98067NX  20116.51497258  .00026673  00000-0  20988-3 0  9990
2 43549  51.6353 201.7593 0003170 274.0669  85.9966 15.71273417101487
ENDUROSAT ONE           
1 43551U 98067NZ  20116.46530064  .00038751  00000-0  23547-3 0  9994
2 43551  51.6352 193.0863 0004008 296.4484  63.6105 15.77084993102008
EQUISAT                 
1 43552U 98067PA  20116.50251541  .00021105  00000-0  16316-3 0  9991
2 43552  51.6355 200.2149 0004286 274.7854  85.2655 15.71847691101878
RADSAT-G                
1 43553U 98067PB  20116.53713483  .00015455  00000-0  14193-3 0  9995
2 43553  51.6400 206.5884 0004607 255.9635 104.0850 15.67918655101848
1998-067PC              
1 43554U 98067PC  20116.43063171  .00046165  00000-0  26080-3 0  9997
2 43554  51.6312 191.3308 0004637 304.3608  55.6954 15.78637586101563
AEROCUBE 12A            
1 43556U 18046C   20116.52077741  .00001036  00000-0  47944-4 0  9997
2 43556  51.6436 359.8687 0008916 104.7944 255.4025 15.29652925 99275
AEROCUBE 12B            
1 43557U 18046D   20116.11469086  .00000643  00000-0  34729-4 0  9990
2 43557  51.6437   2.3977 0008998 103.5474 256.6509 15.29386490 99152
LEMUR-2-VU              
1 43558U 18046E   20116.52609587  .00002964  00000-0  11009-3 0  9991
2 43558  51.6425 356.9824 0008151 107.0943 253.0932 15.30810441 99308
LEMUR-2-ALEXANDER       
1 43559U 18046F   20116.36459721  .00002306  00000-0  88026-4 0  9991
2 43559  51.6414 357.4158 0008248 106.9119 253.2767 15.30945599 99067
LEMUR-2-YUASA           
1 43560U 18046G   20116.08592980  .00003767  00000-0  13694-3 0  9997
2 43560  51.6420 359.2869 0008358 119.0864 241.0955 15.30733755 99231
LEMUR-2-TOMHENDERSON    
1 43561U 18046H   20116.55054477  .00002538  00000-0  96673-4 0  9998
2 43561  51.6420 357.1382 0008497 119.3988 240.7842 15.30584438 98864
SIRIUSSAT-1             
1 43595U 98067PG  20116.61712895  .00025850  00000-0  19785-3 0  9998
2 43595  51.6320 202.3465 0001906 280.6554  79.4230 15.71955377 96700
SIRIUSSAT-2             
1 43596U 98067PH  20116.61179979  .00026182  00000-0  20128-3 0  9991
2 43596  51.6333 203.1308 0002023 268.9918  91.0848 15.71842346 96698
TANUSHA-3               
1 43597U 98067PJ  20116.56990313  .00054657  00000-0  29673-3 0  9991
2 43597  51.6299 193.6511 0003479 324.4068  35.6701 15.79453769 96810
1998-067PK              
1 43598U 98067PK  20116.48407328  .00059300  00000-0  30587-3 0  9998
2 43598  51.6290 193.1109 0003707 326.6611  33.4156 15.80543651 96814
1998-067PN              
1 43638U 98067PN  20116.54118239  .00010543  00000-0  11892-3 0  9994
2 43638  51.6362 219.2385 0001583 201.2595 158.8334 15.63133141 88400
1998-067PP              
1 43639U 98067PP  20116.53179307  .00017599  00000-0  16554-3 0  9995
2 43639  51.6362 212.4352 0002867 212.4647 147.6173 15.67213222 88497
STARS-ME                
1 43640U 98067PQ  20116.55992558  .00012108  00000-0  12820-3 0  9993
2 43640  51.6353 216.3324 0003518 196.4324 163.6557 15.64593593 88446
ISS DEB (SEDA-AP)       
1 43870U 98067PU  20116.36653440  .00004792  00000-0  70581-4 0  9990
2 43870  51.6418 232.3644 0003955 204.3364 155.7383 15.57484111 76380
CATSAT-2                
1 44029U 98067PV  20116.48846684  .00018216  00000-0  19646-3 0  9994
2 44029  51.6387 224.2042 0003871 253.0905 106.9666 15.63725636 70230
DELPHINI                
1 44030U 98067PW  20116.47252561  .00017456  00000-0  18281-3 0  9999
2 44030  51.6350 223.2591 0003763 256.4370 103.6206 15.64512677 70215
UNITE                   
1 44031U 98067PX  20116.48894940  .00009028  00000-0  11381-3 0  9994
2 44031  51.6376 228.6722 0002740 241.6062 118.4656 15.60429226 70145
CATSAT-1                
1 44033U 98067PZ  20116.48827047  .00016505  00000-0  17861-3 0  9997
2 44033  51.6388 224.2087 0003614 253.3783 106.6815 15.63722187 70148
ISS DEB                 
1 44303U 98067QA  20116.48570183  .00004057  00000-0  68921-4 0  9996
2 44303  51.6412 242.9724 0005761 129.1746 230.9757 15.53952339 51525
ISS DEB                 
1 44304U 98067QB  20116.59939804  .00019392  00000-0  24184-3 0  9998
2 44304  51.6396 236.2343 0004064 111.9956 248.1469 15.59897869 51632
ISS DEB                 
1 44305U 98067QC  20116.51088349  .00024060  00000-0  27550-3 0  9998
2 44305  51.6359 234.0360 0002687 192.2737 167.8192 15.61987096 51652
ISS DEB                 
1 44306U 98067QD  20116.50778234  .00004751  00000-0  79422-4 0  9998
2 44306  51.6399 243.0755 0007006 125.9964 234.1677 15.53961790 51537
RAAVANA-1               
1 44329U 98067QE  20116.51350301  .00009857  00000-0  14063-3 0  9996
2 44329  51.6395 239.3801 0005813 164.7476 195.3692 15.56969449 48758
UGUISU                  
1 44330U 98067QF  20116.52343843  .00010167  00000-0  14521-3 0  9997
2 44330  51.6389 239.4427 0005785 163.0343 197.0843 15.56898119 48731
NEPALISAT-1             
1 44331U 98067QG  20116.50686714  .00010175  00000-0  14479-3 0  9994
2 44331  51.6392 239.3350 0005815 165.9539 194.1616 15.56997817 48744
SPOOQY-1                
1 44332U 98067QH  20116.50738240  .00010134  00000-0  14465-3 0  9997
2 44332  51.6394 239.3355 0004780 168.2496 191.8608 15.56923284 48708
PINOT                   
1 44364U 98067QJ  20116.53975307  .00005840  00000-0  96649-4 0  9995
2 44364  51.6461 243.3045 0007535 128.4109 231.7558 15.53750668 47112
IOD-1 GEMS              
1 44385U 98067QK  20116.50113659  .00014981  00000-0  19691-3 0  9996
2 44385  51.6407 238.5863 0002032 120.5987 239.5207 15.58719634 46235
SWIATOWID               
1 44426U 98067QL  20116.60812715  .00022237  00000-0  28207-3 0  9998
2 44426  51.6418 237.7580 0002902 125.4812 247.6423 15.59353675 46260
KRAKSAT                 
1 44427U 98067QM  20116.52785366  .00007201  00000-0  11122-3 0  9993
2 44427  51.6408 241.7568 0003497 115.8098 244.3254 15.55281757 46241
VCC A                   
1 44428U 98067QN  20116.61376237  .00010641  00000-0  15458-3 0  9995
2 44428  51.6409 240.0846 0002550 137.7336 222.3852 15.56383395 46276
ENTRYSAT                
1 44429U 98067QP  20116.35693991  .00012299  00000-0  17248-3 0  9996
2 44429  51.6395 240.6012 0002193 127.8674 232.2516 15.57173454 46248
VCC C                   
1 44430U 98067QQ  20116.55866684  .00015751  00000-0  21143-3 0  9996
2 44430  51.6391 238.9592 0001932 144.4229 215.6892 15.58111187 45113
VCC B                   
1 44431U 98067QR  20116.35782104  .00010695  00000-0  15521-3 0  9994
2 44431  51.6401 241.3656 0002666 135.9763 224.1441 15.56406346 46172
ISS DEB                 
1 44788U 98067QT  20116.36748050  .00018520  00000-0  28439-3 0  9999
2 44788  51.6418 246.6509 0006041 160.6886 199.4227 15.54303977 25135
ISS DEB                 
1 44789U 98067QU  20116.38999388  .00019974  00000-0  31011-3 0  9998
2 44789  51.6412 246.8193 0006515 160.8873 199.1958 15.53941588 25127
RWASAT-1                
1 44790U 98067QV  20116.45372965 -.00000474  00000-0  00000+0 0  9990
2 44790  51.6440 247.0025 0008088 177.7665 292.8957 15.52329500 24391
AQT-D                   
1 44791U 98067QW  20116.52573872  .00005259  00000-0  93651-4 0  9993
2 44791  51.6415 246.9652 0002765 147.2687 212.8475 15.51911581 24404
NARSSCUBE-1             
1 44792U 98067QX  20116.55349092  .00008596  00000-0  14329-3 0  9993
2 44792  51.6409 246.4000 0005438 173.8951 186.2107 15.52852414 24416
PROGRESS-MS 13          
1 44833U 19085A   20116.52649508  .00001118  00000-0  28146-4 0  9990
2 44833  51.6442 249.0994 0001648 186.7242 221.9826 15.49312231223853
STPSAT-4                
1 45043U 98067QY  20116.62806212  .00004325  00000-0  84731-4 0  9994
2 45043  51.6460 248.3799 0006270 168.9035 191.2084 15.49648782 13631
CYGNUS NG-13            
1 45175U 20011A   20116.52649508  .00001118  00000-0  28146-4 0  9991
2 45175  51.6442 249.0994 0001648 186.7242 221.9826 15.49312231223853
HARP                    
1 45256U 98067QZ  20116.53503554  .00006000  00000-0  11074-3 0  9994
2 45256  51.6423 248.5218 0007717 160.3359 199.7929 15.50582901 10298
1998-067RA              
1 45257U 98067RA  20116.53325196  .00005014  00000-0  93904-4 0  9996
2 45257  51.6421 248.5092 0008372 164.0280 196.0975 15.50566629 10299
PHOENIX                 
1 45258U 98067RB  20116.53597811  .00004433  00000-0  84274-4 0  9996
2 45258  51.6417 248.5245 0006493 144.8512 215.2907 15.50456881 10265
1998-067RC              
1 45259U 98067RC  20116.46744994  .00006981  00000-0  12685-3 0  9991
2 45259  51.6418 248.8193 0007610 162.1574 197.9684 15.50737791 10287
CRYOCUBE                
1 45260U 98067RD  20116.52545735  .00006751  00000-0  12234-3 0  9997
2 45260  51.6418 248.4570 0008417 161.4163 198.7135 15.50872421 10309
1998-067RE              
1 45261U 98067RE  20116.45799660  .00008742  00000-0  15506-3 0  9995
2 45261  51.6417 248.7563 0008144 162.3193 197.8081 15.51056271 10289
1998-067RF              
1 45262U 98067RF  20116.53142272  .00005074  00000-0  94798-4 0  9992
2 45262  51.6423 248.4987 0007065 197.3291 162.7458 15.50611491 10304
QARMAN                  
1 45263U 98067RG  20116.40906494  .00006299  00000-0  11605-3 0  9998
2 45263  51.6419 249.1789 0007666 158.7620 201.3689 15.50534351 10307
SORTIE                  
1 45264U 98067RH  20116.54466266  .00003467  00000-0  68282-4 0  9990
2 45264  51.6423 248.5855 0007920 168.1696 191.9480 15.50186148 10299
ICS-EF (ISS DEB)        
1 45265U 98067RJ  20116.50366449  .00002010  00000-0  43881-4 0  9990
2 45265  51.6422 249.0578 0005744 168.0959 192.0167 15.49538789  9966
SOYUZ-MS 16             
1 45476U 20023A   20116.52649508  .00001118  00000-0  28146-4 0  9998
2 45476  51.6442 249.0994 0001648 186.7242 221.9826 15.49312231223857
2020-026A               
1 45595U 20025A   20116.52649508  .00001118  00000-0  28146-4 0  9992
2 45595  51.6442 249.0994 0001648 186.7242 221.9826 15.49312231223859
2020-026B               
1 45596U 20025B   20116.74536882  .01539490  12094-4  37595-3 0  9994
2 45596  51.6537 247.7279 0022551  67.7515 292.6081 16.27722623   109
